start=new Date('2023-02-27T00:00:00.000Z').valueOf();
sats=[{"LAUNCH_DATE":"2022-08-31","DECAY_DATE":null,"TLE_LINE1":"1 53682U 22105AL  23057.62892870  .00002192  00000-0  17510-3 0  9994","OBJECT_TYPE":"PAYLOAD","CENTER_NAME":"EARTH","APOAPSIS":"564.306","CLASSIFICATION_TYPE":"U","OBJECT_ID":"2022-105AL","NORAD_CAT_ID":"53682","TIME_SYSTEM":"UTC","MEAN_ELEMENT_THEORY":"SGP4","TLE_LINE2":"2 53682  97.6566 300.2754 0001954  84.2733 275.8714 15.01280229 27421","BSTAR":"0.00017510000000","MEAN_MOTION_DDOT":"0.0000000000000","FILE":"3842580","EPHEMERIS_TYPE":"0","PERIAPSIS":"561.593","PERIOD":"95.918","REV_AT_EPOCH":"2742","REF_FRAME":"TEME","SEMIMAJOR_AXIS":"6941.084","RCS_SIZE":"LARGE","EPOCH":"2023-02-26T15:05:39.439680","INCLINATION":"97.6566","MEAN_ANOMALY":"275.8714","SITE":"AFWTR","ELEMENT_SET_NO":"999","RA_OF_ASC_NODE":"300.2754","ARG_OF_PERICENTER":"84.2733","MEAN_MOTION":"15.01280229","GP_ID":"227028001","MEAN_MOTION_DOT":"0.00002192","OBJECT_NAME":"STARLINK-4438","ECCENTRICITY":"0.00019540","COUNTRY_CODE":"US"},{"OBJECT_ID":"2022-105AM","NORAD_CAT_ID":"53683","TIME_SYSTEM":"UTC","MEAN_ELEMENT_THEORY":"SGP4","TLE_LINE2":"2 53683  97.6558 300.3458 0001709  92.9119 267.2301 15.01283078 27159","BSTAR":"0.00061102000000","MEAN_MOTION_DDOT":"0.0000000000000","FILE":"3843368","LAUNCH_DATE":"2022-08-31","DECAY_DATE":null,"TLE_LINE1":"1 53683U 22105AM  23057.70089527  .00007803  00000-0  61102-3 0  9991","OBJECT_TYPE":"PAYLOAD","CENTER_NAME":"EARTH","APOAPSIS":"564.127","CLASSIFICATION_TYPE":"U","MEAN_ANOMALY":"267.2301","INCLINATION":"97.6558","SITE":"AFWTR","ARG_OF_PERICENTER":"92.9119","RA_OF_ASC_NODE":"300.3458","ELEMENT_SET_NO":"999","MEAN_MOTION":"15.01283078","GP_ID":"227069538","MEAN_MOTION_DOT":"0.00007803","OBJECT_NAME":"STARLINK-4625","ECCENTRICITY":"0.00017090","COUNTRY_CODE":"US","EPHEMERIS_TYPE":"0","PERIAPSIS":"561.754","PERIOD":"95.918","REV_AT_EPOCH":"2715","REF_FRAME":"TEME","RCS_SIZE":"LARGE","SEMIMAJOR_AXIS":"6941.076","EPOCH":"2023-02-26T16:49:17.351328"},{"OBJECT_ID":"2022-105AN","NORAD_CAT_ID":"53684","MEAN_ELEMENT_THEORY":"SGP4","TIME_SYSTEM":"UTC","BSTAR":"0.00111280000000","TLE_LINE2":"2 53684  97.6559 300.4093 0002881  87.9272 272.2282 15.01291809 27158","MEAN_MOTION_DDOT":"0.0000000000000","FILE":"3843368","LAUNCH_DATE":"2022-08-31","DECAY_DATE":null,"TLE_LINE1":"1 53684U 22105AN  23057.74742818  .00014276  00000-0  11128-2 0  9999","OBJECT_TYPE":"PAYLOAD","CENTER_NAME":"EARTH","CLASSIFICATION_TYPE":"U","APOAPSIS":"564.914","MEAN_ANOMALY":"272.2282","INCLINATION":"97.6559","RA_OF_ASC_NODE":"300.4093","SITE":"AFWTR","ELEMENT_SET_NO":"999","ARG_OF_PERICENTER":"87.9272","MEAN_MOTION":"15.01291809","GP_ID":"227068817","MEAN_MOTION_DOT":"0.00014276","OBJECT_NAME":"STARLINK-4624","COUNTRY_CODE":"US","ECCENTRICITY":"0.00028810","EPHEMERIS_TYPE":"0","PERIAPSIS":"560.914","PERIOD":"95.917","REV_AT_EPOCH":"2715","REF_FRAME":"TEME","EPOCH":"2023-02-26T17:56:17.794752","SEMIMAJOR_AXIS":"6941.049","RCS_SIZE":"LARGE"},{"RA_OF_ASC_NODE":"300.2766","SITE":"AFWTR","ELEMENT_SET_NO":"999","ARG_OF_PERICENTER":"93.2161","MEAN_ANOMALY":"266.9255","INCLINATION":"97.6561","ECCENTRICITY":"0.00016800","COUNTRY_CODE":"US","OBJECT_NAME":"STARLINK-4626","MEAN_MOTION_DOT":"0.00001835","GP_ID":"227069067","MEAN_MOTION":"15.01274540","PERIOD":"95.918","PERIAPSIS":"561.801","EPHEMERIS_TYPE":"0","EPOCH":"2023-02-26T15:07:58.335456","RCS_SIZE":"LARGE","SEMIMAJOR_AXIS":"6941.102","REF_FRAME":"TEME","REV_AT_EPOCH":"2714","MEAN_ELEMENT_THEORY":"SGP4","TIME_SYSTEM":"UTC","NORAD_CAT_ID":"53685","OBJECT_ID":"2022-105AP","FILE":"3843368","MEAN_MOTION_DDOT":"0.0000000000000","TLE_LINE2":"2 53685  97.6561 300.2766 0001680  93.2161 266.9255 15.01274540 27142","BSTAR":"0.00014737000000","TLE_LINE1":"1 53685U 22105AP  23057.63053629  .00001835  00000-0  14737-3 0  9990","DECAY_DATE":null,"LAUNCH_DATE":"2022-08-31","CLASSIFICATION_TYPE":"U","APOAPSIS":"564.133","CENTER_NAME":"EARTH","OBJECT_TYPE":"PAYLOAD"},{"REV_AT_EPOCH":"2714","SEMIMAJOR_AXIS":"6941.093","RCS_SIZE":"LARGE","EPOCH":"2023-02-26T15:02:38.501664","REF_FRAME":"TEME","PERIAPSIS":"561.723","EPHEMERIS_TYPE":"0","PERIOD":"95.918","GP_ID":"227069819","MEAN_MOTION":"15.01277377","COUNTRY_CODE":"US","ECCENTRICITY":"0.00017790","MEAN_MOTION_DOT":"0.00003156","OBJECT_NAME":"STARLINK-4467","SITE":"AFWTR","RA_OF_ASC_NODE":"300.2762","ARG_OF_PERICENTER":"88.2979","ELEMENT_SET_NO":"999","INCLINATION":"97.6578","MEAN_ANOMALY":"271.8449","CENTER_NAME":"EARTH","OBJECT_TYPE":"PAYLOAD","APOAPSIS":"564.193","CLASSIFICATION_TYPE":"U","DECAY_DATE":null,"LAUNCH_DATE":"2022-08-31","TLE_LINE1":"1 53686U 22105AQ  23057.62683451  .00003156  00000-0  25011-3 0  9997","FILE":"3843368","MEAN_MOTION_DDOT":"0.0000000000000","BSTAR":"0.00025011000000","TLE_LINE2":"2 53686  97.6578 300.2762 0001779  88.2979 271.8449 15.01277377 27148","OBJECT_ID":"2022-105AQ","MEAN_ELEMENT_THEORY":"SGP4","TIME_SYSTEM":"UTC","NORAD_CAT_ID":"53686"},{"ELEMENT_SET_NO":"999","SITE":"AFWTR","ARG_OF_PERICENTER":"89.0902","RA_OF_ASC_NODE":"300.2759","INCLINATION":"97.6563","MEAN_ANOMALY":"271.0505","ECCENTRICITY":"0.00015910","COUNTRY_CODE":"US","OBJECT_NAME":"STARLINK-4569","MEAN_MOTION_DOT":"0.00013098","GP_ID":"227027330","MEAN_MOTION":"15.01291824","PERIOD":"95.917","PERIAPSIS":"561.809","EPHEMERIS_TYPE":"0","RCS_SIZE":"LARGE","SEMIMAJOR_AXIS":"6941.049","EPOCH":"2023-02-26T15:05:19.379328","REF_FRAME":"TEME","REV_AT_EPOCH":"2742","MEAN_ELEMENT_THEORY":"SGP4","TIME_SYSTEM":"UTC","NORAD_CAT_ID":"53687","OBJECT_ID":"2022-105AR","FILE":"3842567","MEAN_MOTION_DDOT":"0.0000000000000","BSTAR":"0.00102160000000","TLE_LINE2":"2 53687  97.6563 300.2759 0001591  89.0902 271.0505 15.01291824 27425","TLE_LINE1":"1 53687U 22105AR  23057.62869652  .00013098  00000-0  10216-2 0  9993","DECAY_DATE":null,"LAUNCH_DATE":"2022-08-31","APOAPSIS":"564.018","CLASSIFICATION_TYPE":"U","CENTER_NAME":"EARTH","OBJECT_TYPE":"PAYLOAD"},{"INCLINATION":"97.6593","MEAN_ANOMALY":"269.6963","SITE":"AFWTR","ARG_OF_PERICENTER":"90.4505","ELEMENT_SET_NO":"999","RA_OF_ASC_NODE":"300.3452","OBJECT_NAME":"STARLINK-4571","MEAN_MOTION_DOT":"0.00002699","COUNTRY_CODE":"US","ECCENTRICITY":"0.00021260","MEAN_MOTION":"15.01275170","GP_ID":"227068317","PERIOD":"95.918","EPHEMERIS_TYPE":"0","PERIAPSIS":"561.489","REF_FRAME":"TEME","RCS_SIZE":"LARGE","SEMIMAJOR_AXIS":"6941.100","EPOCH":"2023-02-26T16:33:17.151840","REV_AT_EPOCH":"2715","NORAD_CAT_ID":"53688","MEAN_ELEMENT_THEORY":"SGP4","TIME_SYSTEM":"UTC","OBJECT_ID":"2022-105AS","TLE_LINE2":"2 53688  97.6593 300.3452 0002126  90.4505 269.6963 15.01275170 27157","BSTAR":"0.00021459000000","MEAN_MOTION_DDOT":"0.0000000000000","FILE":"3843368","TLE_LINE1":"1 53688U 22105AS  23057.68978185  .00002699  00000-0  21459-3 0  9999","LAUNCH_DATE":"2022-08-31","DECAY_DATE":null,"APOAPSIS":"564.441","CLASSIFICATION_TYPE":"U","OBJECT_TYPE":"PAYLOAD","CENTER_NAME":"EARTH"},{"REV_AT_EPOCH":"2715","RCS_SIZE":"LARGE","SEMIMAJOR_AXIS":"6941.080","EPOCH":"2023-02-26T16:35:56.959008","REF_FRAME":"TEME","PERIAPSIS":"561.671","EPHEMERIS_TYPE":"0","PERIOD":"95.918","GP_ID":"227068567","MEAN_MOTION":"15.01281557","ECCENTRICITY":"0.00018360","COUNTRY_CODE":"US","OBJECT_NAME":"STARLINK-4562","MEAN_MOTION_DOT":"0.00003468","ARG_OF_PERICENTER":"90.6078","SITE":"AFWTR","RA_OF_ASC_NODE":"300.3438","ELEMENT_SET_NO":"999","MEAN_ANOMALY":"269.5356","INCLINATION":"97.6592","CENTER_NAME":"EARTH","OBJECT_TYPE":"PAYLOAD","APOAPSIS":"564.220","CLASSIFICATION_TYPE":"U","DECAY_DATE":null,"LAUNCH_DATE":"2022-08-31","TLE_LINE1":"1 53689U 22105AT  23057.69163147  .00003468  00000-0  27432-3 0  9997","MEAN_MOTION_DDOT":"0.0000000000000","FILE":"3843368","TLE_LINE2":"2 53689  97.6592 300.3438 0001836  90.6078 269.5356 15.01281557 27156","BSTAR":"0.00027432000000","OBJECT_ID":"2022-105AT","MEAN_ELEMENT_THEORY":"SGP4","TIME_SYSTEM":"UTC","NORAD_CAT_ID":"53689"},{"REV_AT_EPOCH":"2715","SEMIMAJOR_AXIS":"6941.091","RCS_SIZE":"LARGE","EPOCH":"2023-02-26T16:30:37.283328","REF_FRAME":"TEME","PERIAPSIS":"561.266","EPHEMERIS_TYPE":"0","PERIOD":"95.918","GP_ID":"227069319","MEAN_MOTION":"15.01278012","ECCENTRICITY":"0.00024350","COUNTRY_CODE":"US","OBJECT_NAME":"STARLINK-4570","MEAN_MOTION_DOT":"0.00003384","ARG_OF_PERICENTER":"86.4226","SITE":"AFWTR","RA_OF_ASC_NODE":"300.3460","ELEMENT_SET_NO":"999","INCLINATION":"97.6585","MEAN_ANOMALY":"273.7277","CENTER_NAME":"EARTH","OBJECT_TYPE":"PAYLOAD","APOAPSIS":"564.646","CLASSIFICATION_TYPE":"U","DECAY_DATE":null,"LAUNCH_DATE":"2022-08-31","TLE_LINE1":"1 53690U 22105AU  23057.68793152  .00003384  00000-0  26782-3 0  9997","FILE":"3843368","MEAN_MOTION_DDOT":"0.0000000000000","TLE_LINE2":"2 53690  97.6585 300.3460 0002435  86.4226 273.7277 15.01278012 27150","BSTAR":"0.00026782000000","OBJECT_ID":"2022-105AU","MEAN_ELEMENT_THEORY":"SGP4","TIME_SYSTEM":"UTC","NORAD_CAT_ID":"53690"},{"FILE":"3843368","MEAN_MOTION_DDOT":"0.0000000000000","BSTAR":"0.00056773000000","TLE_LINE2":"2 53691  97.6577 300.3463 0002020  85.8259 274.3196 15.01290225 27151","TIME_SYSTEM":"UTC","MEAN_ELEMENT_THEORY":"SGP4","NORAD_CAT_ID":"53691","OBJECT_ID":"2022-105AV","CLASSIFICATION_TYPE":"U","APOAPSIS":"564.321","CENTER_NAME":"EARTH","OBJECT_TYPE":"PAYLOAD","TLE_LINE1":"1 53691U 22105AV  23057.68818012  .00007246  00000-0  56773-3 0  9995","DECAY_DATE":null,"LAUNCH_DATE":"2022-08-31","COUNTRY_CODE":"US","ECCENTRICITY":"0.00020200","OBJECT_NAME":"STARLINK-4560","MEAN_MOTION_DOT":"0.00007246","GP_ID":"227069539","MEAN_MOTION":"15.01290225","ARG_OF_PERICENTER":"85.8259","SITE":"AFWTR","RA_OF_ASC_NODE":"300.3463","ELEMENT_SET_NO":"999","MEAN_ANOMALY":"274.3196","INCLINATION":"97.6577","EPOCH":"2023-02-26T16:30:58.762368","RCS_SIZE":"LARGE","SEMIMAJOR_AXIS":"6941.054","REF_FRAME":"TEME","REV_AT_EPOCH":"2715","PERIOD":"95.917","PERIAPSIS":"561.517","EPHEMERIS_TYPE":"0"}];
